BEIDOU 1
1 26599U 00069A   15134.16532519 -.00000222  00000-0  00000+0 0  9998
2 26599 005.7943 059.0321 0013020 313.3752 232.7056 00.98910409 53149
BEIDOU 1B
1 26643U 00082A   15134.55038985 -.00000163  00000-0  00000+0 0  9998
2 26643 006.7320 054.5540 0082527 350.3482 129.8524 00.99250285 52641
BEIDOU 1C
1 27813U 03021A   15134.16160807 -.00000290  00000-0  00000+0 0  9991
2 27813 003.7765 068.1004 0007549 106.5091 075.7395 00.99778411 43837
BEIDOU 1D
1 30323U 07003A   15134.50517765  .00000000  00000-0  10000-3 0  9995
2 30323 000.7568 100.8058 0058206 157.7072 202.6308 00.99148048 30525
BEIDOU M1
1 31115U 07011A   15134.05882074 -.00000070  00000-0  00000+0 0  9995
2 31115 053.4982 352.4410 0001155 316.0000 044.0199 01.77348180 54538
BEIDOU G2
1 34779U 09018A   15135.78344547  .00000082  00000-0  00000+0 0  9994
2 34779 003.9584 063.9486 0085399 185.5365 281.7073 01.00255770 22474
BEIDOU G1
1 36287U 10001A   15135.21282858 -.00000301  00000-0  10000-3 0  9998
2 36287 001.6298 012.0745 0003642 173.1869 263.9786 01.00268383 19555
BEIDOU G3
1 36590U 10024A   15135.89897906 -.00000372  00000-0  00000+0 0  9993
2 36590 001.5311 030.1837 0003497 307.3780 329.8052 01.00264865 18166
BEIDOU IGSO 1
1 36828U 10036A   15135.33443627 -.00000135  00000-0  10000-3 0  9998
2 36828 054.3143 201.0770 0040581 211.5963 056.5634 01.00300318 17598
BEIDOU G4
1 37210U 10057A   15134.74448192 -.00000128  00000-0  10000-3 0  9995
2 37210 000.7299 038.9536 0005020 158.4882 102.7413 01.00272280 16679
BEIDOU IGSO 2
1 37256U 10068A   15135.87956764 -.00000232  00000-0  10000-3 0  9997
2 37256 054.0257 320.1054 0031271 198.9649 147.4181 01.00250164 16184
BEIDOU IGSO 3
1 37384U 11013A   15135.48313287 -.00000186  00000-0  10000-3 0  9992
2 37384 056.9052 080.9634 0025085 194.8095 251.6107 01.00267202 15064
BEIDOU IGSO 4
1 37763U 11038A   15135.58709042 -.00000080  00000-0  10000-3 0  9992
2 37763 054.6283 203.3165 0036192 205.6986 130.2611 01.00284982 14028
BEIDOU IGSO 5
1 37948U 11073A   15135.89163884 -.00000172  00000-0  10000-3 0  9990
2 37948 054.1228 319.5513 0030073 197.8843 131.5878 01.00264547 12785
BEIDOU G5
1 38091U 12008A   15135.08744073  .00000039  00000-0  00000+0 0  9991
2 38091 001.1110 027.3410 0001231 091.7466 203.5948 01.00275728 11852
BEIDOU M3
1 38250U 12018A   15135.82039459 -.00000043  00000-0  10000-3 0  9997
2 38250 055.7356 079.8294 0022863 212.0716 064.3109 01.86233458 20858
BEIDOU M4
1 38251U 12018B   15135.05650253 -.00000037  00000-0  10000-3 0  9997
2 38251 055.6711 079.3310 0025241 205.2155 325.3250 01.86234285 20846
BEIDOU M5
1 38774U 12050A   15134.56874341 -.00000046  00000-0  10000-3 0  9994
2 38774 054.7520 199.5141 0033973 173.3207 186.8039 01.86249975 18221
BEIDOU M6
1 38775U 12050B   15134.62944219  .00000033  00000-0  00000+0 0  9994
2 38775 054.8572 199.1133 0020151 220.0968 218.8294 01.86233038 18216
BEIDOU G6
1 38953U 12059A   15135.82820391 -.00000154  00000-0  10000-3 0  9998
2 38953 000.1584 033.9713 0001500 048.7048 168.7441 01.00271120  9432
BEIDOU I1-S
1 40549U 15019A   15135.45922510 -.00000182  00000-0  00000+0 0  9992
2 40549 054.9590 342.4645 0043071 175.0908 336.6576 01.00290364   460
